{
  "type": "FeatureCollection",
  "features": [
    {
      "type": "Feature",
      "properties": {
        "norad_id": 66618,
        "name": "STARLINK-35970",
        "group": "last-30-days",
        "lat": -15.136646220122254,
        "lon": -43.72727218239226,
        "alt_km": 450.6519885284615,
        "timestamp": "2025-12-25T20:42:37.406176+00:00",
        "meta_object_name": "STARLINK-35970",
        "meta_object_id": "2025-271B",
        "meta_epoch": "2025-12-25T08:00:01.000224",
        "meta_mean_motion": 15.41861648,
        "meta_eccentricity": 0.0001414,
        "meta_inclination": 53.1602,
        "meta_ra_of_asc_node": 127.0714,
        "meta_arg_of_pericenter": 112.7903,
        "meta_mean_anomaly": 27.3623,
        "meta_ephemeris_type": 0,
        "meta_classification_type": "U",
        "meta_norad_cat_id": 66618,
        "meta_element_set_no": 999,
        "meta_rev_at_epoch": 605,
        "meta_bstar": -0.058267293,
        "meta_mean_motion_dot": -0.02249312,
        "meta_mean_motion_ddot": 0,
        "tle_line1": "1 66618U 25271B   25359.33334491 -.02249312  00000+0 -58267-1 0  9991",
        "tle_line2": "2 66618  53.1602 127.0714 0001414 112.7903  27.3623 15.41861648  6059"
      },
      "geometry": {
        "type": "Point",
        "coordinates": [
          -43.72727218239226,
          -15.136646220122254
        ]
      }
    },
    {
      "type": "Feature",
      "properties": {
        "norad_id": 66619,
        "name": "STARLINK-35951",
        "group": "last-30-days",
        "lat": 52.943704139820234,
        "lon": -138.3832971327464,
        "alt_km": 439.1109107630764,
        "timestamp": "2025-12-25T20:42:37.406188+00:00",
        "meta_object_name": "STARLINK-35951",
        "meta_object_id": "2025-271C",
        "meta_epoch": "2025-12-25T08:00:01.000224",
        "meta_mean_motion": 15.39587883,
        "meta_eccentricity": 0.00013257,
        "meta_inclination": 53.1593,
        "meta_ra_of_asc_node": 127.2818,
        "meta_arg_of_pericenter": 96.591,
        "meta_mean_anomaly": 300.5423,
        "meta_ephemeris_type": 0,
        "meta_classification_type": "U",
        "meta_norad_cat_id": 66619,
        "meta_element_set_no": 999,
        "meta_rev_at_epoch": 610,
        "meta_bstar": 0.0016149722,
        "meta_mean_motion_dot": 0.00064679,
        "meta_mean_motion_ddot": 0,
        "tle_line1": "1 66619U 25271C   25359.33334491  .00064679  00000+0  16150-2 0  9995",
        "tle_line2": "2 66619  53.1593 127.2818 0001325  96.5910 300.5423 15.39587883  6107"
      },
      "geometry": {
        "type": "Point",
        "coordinates": [
          -138.3832971327464,
          52.943704139820234
        ]
      }
    },
    {
      "type": "Feature",
      "properties": {
        "norad_id": 66620,
        "name": "STARLINK-35936",
        "group": "last-30-days",
        "lat": 32.743761655009564,
        "lon": 153.71419724210907,
        "alt_km": 442.56186215950765,
        "timestamp": "2025-12-25T20:42:37.406198+00:00",
        "meta_object_name": "STARLINK-35936",
        "meta_object_id": "2025-271D",
        "meta_epoch": "2025-12-25T08:00:01.000224",
        "meta_mean_motion": 15.39583543,
        "meta_eccentricity": 0.00010921,
        "meta_inclination": 53.1594,
        "meta_ra_of_asc_node": 127.3858,
        "meta_arg_of_pericenter": 90.2799,
        "meta_mean_anomaly": 255.3661,
        "meta_ephemeris_type": 0,
        "meta_classification_type": "U",
        "meta_norad_cat_id": 66620,
        "meta_element_set_no": 999,
        "meta_rev_at_epoch": 610,
        "meta_bstar": 0.0016952401,
        "meta_mean_motion_dot": 0.00067933,
        "meta_mean_motion_ddot": 0,
        "tle_line1": "1 66620U 25271D   25359.33334491  .00067933  00000+0  16952-2 0  9993",
        "tle_line2": "2 66620  53.1594 127.3858 0001092  90.2799 255.3661 15.39583543  6102"
      },
      "geometry": {
        "type": "Point",
        "coordinates": [
          153.71419724210907,
          32.743761655009564
        ]
      }
    },
    {
      "type": "Feature",
      "properties": {
        "norad_id": 66621,
        "name": "STARLINK-35847",
        "group": "last-30-days",
        "lat": -28.859772185038878,
        "lon": -31.059614736169394,
        "alt_km": 437.5024952713411,
        "timestamp": "2025-12-25T20:42:37.406208+00:00",
        "meta_object_name": "STARLINK-35847",
        "meta_object_id": "2025-271E",
        "meta_epoch": "2025-12-25T08:00:01.000224",
        "meta_mean_motion": 15.45966039,
        "meta_eccentricity": 0.00015151,
        "meta_inclination": 53.1603,
        "meta_ra_of_asc_node": 127.053,
        "meta_arg_of_pericenter": 85.1533,
        "meta_mean_anomaly": 64.2721,
        "meta_ephemeris_type": 0,
        "meta_classification_type": "U",
        "meta_norad_cat_id": 66621,
        "meta_element_set_no": 999,
        "meta_rev_at_epoch": 605,
        "meta_bstar": -0.030569395,
        "meta_mean_motion_dot": -0.01360195,
        "meta_mean_motion_ddot": 0,
        "tle_line1": "1 66621U 25271E   25359.33334491 -.01360195  00000+0 -30569-1 0  9992",
        "tle_line2": "2 66621  53.1603 127.0530 0001515  85.1533  64.2721 15.45966039  6057"
      },
      "geometry": {
        "type": "Point",
        "coordinates": [
          -31.059614736169394,
          -28.859772185038878
        ]
      }
    },
    {
      "type": "Feature",
      "properties": {
        "norad_id": 66622,
        "name": "STARLINK-35950",
        "group": "last-30-days",
        "lat": -27.049294790589222,
        "lon": 102.53392493086925,
        "alt_km": 451.11072417402374,
        "timestamp": "2025-12-25T20:42:37.406219+00:00",
        "meta_object_name": "STARLINK-35950",
        "meta_object_id": "2025-271F",
        "meta_epoch": "2025-12-25T02:09:55.642176",
        "meta_mean_motion": 15.39635182,
        "meta_eccentricity": 0.00012333,
        "meta_inclination": 53.1595,
        "meta_ra_of_asc_node": 128.6846,
        "meta_arg_of_pericenter": 83.6271,
        "meta_mean_anomaly": 276.4874,
        "meta_ephemeris_type": 0,
        "meta_classification_type": "U",
        "meta_norad_cat_id": 66622,
        "meta_element_set_no": 999,
        "meta_rev_at_epoch": 611,
        "meta_bstar": 0.00077232028,
        "meta_mean_motion_dot": 0.00030632,
        "meta_mean_motion_ddot": 0,
        "tle_line1": "1 66622U 25271F   25359.09022734  .00030632  00000+0  77232-3 0  9997",
        "tle_line2": "2 66622  53.1595 128.6846 0001233  83.6271 276.4874 15.39635182  6112"
      },
      "geometry": {
        "type": "Point",
        "coordinates": [
          102.53392493086925,
          -27.049294790589222
        ]
      }
    },
    {
      "type": "Feature",
      "properties": {
        "norad_id": 66623,
        "name": "STARLINK-35920",
        "group": "last-30-days",
        "lat": -52.94895713725829,
        "lon": 41.91474506325136,
        "alt_km": 452.27576371013583,
        "timestamp": "2025-12-25T20:42:37.406229+00:00",
        "meta_object_name": "STARLINK-35920",
        "meta_object_id": "2025-271G",
        "meta_epoch": "2025-12-24T20:09:23.217984",
        "meta_mean_motion": 15.39644776,
        "meta_eccentricity": 7.399e-05,
        "meta_inclination": 53.1613,
        "meta_ra_of_asc_node": 129.9627,
        "meta_arg_of_pericenter": 82.3587,
        "meta_mean_anomaly": 277.7502,
        "meta_ephemeris_type": 0,
        "meta_classification_type": "U",
        "meta_norad_cat_id": 66623,
        "meta_element_set_no": 999,
        "meta_rev_at_epoch": 607,
        "meta_bstar": 0.00082949446,
        "meta_mean_motion_dot": 0.0003295,
        "meta_mean_motion_ddot": 0,
        "tle_line1": "1 66623U 25271G   25358.83985206  .00032950  00000+0  82949-3 0  9997",
        "tle_line2": "2 66623  53.1613 129.9627 0000739  82.3587 277.7502 15.39644776  6077"
      },
      "geometry": {
        "type": "Point",
        "coordinates": [
          41.91474506325136,
          -52.94895713725829
        ]
      }
    },
    {
      "type": "Feature",
      "properties": {
        "norad_id": 66624,
        "name": "STARLINK-35927",
        "group": "last-30-days",
        "lat": 43.90724695904869,
        "lon": -101.45661500705116,
        "alt_km": 440.6312207091314,
        "timestamp": "2025-12-25T20:42:37.406239+00:00",
        "meta_object_name": "STARLINK-35927",
        "meta_object_id": "2025-271H",
        "meta_epoch": "2025-12-25T08:00:01.000224",
        "meta_mean_motion": 15.39600815,
        "meta_eccentricity": 8.312e-05,
        "meta_inclination": 53.1597,
        "meta_ra_of_asc_node": 127.2312,
        "meta_arg_of_pericenter": 128.8847,
        "meta_mean_anomaly": 293.9684,
        "meta_ephemeris_type": 0,
        "meta_classification_type": "U",
        "meta_norad_cat_id": 66624,
        "meta_element_set_no": 999,
        "meta_rev_at_epoch": 610,
        "meta_bstar": 0.0021807385,
        "meta_mean_motion_dot": 0.00087783,
        "meta_mean_motion_ddot": 0,
        "tle_line1": "1 66624U 25271H   25359.33334491  .00087783  00000+0  21807-2 0  9997",
        "tle_line2": "2 66624  53.1597 127.2312 0000831 128.8847 293.9684 15.39600815  6100"
      },
      "geometry": {
        "type": "Point",
        "coordinates": [
          -101.45661500705116,
          43.90724695904869
        ]
      }
    }
  ]
}